[{"OBJECT_NAME":"ICEYE-X4","OBJECT_ID":"2019-038D","EPOCH":"2026-03-09T23:53:58.416000","MEAN_MOTION":15.26985132,"ECCENTRICITY":0.00122769,"INCLINATION":97.8888,"RA_OF_ASC_NODE":96.1923,"ARG_OF_PERICENTER":293.9914,"MEAN_ANOMALY":66.0038,"EPHEMERIS_TYPE":0,"CLASSIFICATION_TYPE":"U","NORAD_CAT_ID":44390,"ELEMENT_SET_NO":999,"REV_AT_EPOCH":36665,"BSTAR":0.00049915294,"MEAN_MOTION_DOT":0.00013179,"MEAN_MOTION_DDOT":0},{"OBJECT_NAME":"STARLINK-35417","OBJECT_ID":"2025-253S","EPOCH":"2026-03-09T10:12:35.316000","MEAN_MOTION":15.27594286,"ECCENTRICITY":0.00028697,"INCLINATION":42.9984,"RA_OF_ASC_NODE":214.0338,"ARG_OF_PERICENTER":291.1795,"MEAN_ANOMALY":68.875,"EPHEMERIS_TYPE":0,"CLASSIFICATION_TYPE":"U","NORAD_CAT_ID":66335,"ELEMENT_SET_NO":999,"REV_AT_EPOCH":2020,"BSTAR":0.0010345601,"MEAN_MOTION_DOT":0.0002833,"MEAN_MOTION_DDOT":0}]
